#aV2021  1 24  0  0  0.00000000     288 DD+AD WGS84 FIT  NGA
## 2142      0.00000000   300.00000000 59238 0.0000000000000
+   32     1  2  3  4  5  6  7  8  9 10 11 12 13 14 15 16 17
+         18 19 20 21 22 23 24 25 26 27 28 29 30 31 32  0  0
+          0  0  0  0  0  0  0  0  0  0  0  0  0  0  0  0  0
+          0  0  0  0  0  0  0  0  0  0  0  0  0  0  0  0  0
+          0  0  0  0  0  0  0  0  0  0  0  0  0  0  0  0  0
++         2  2  2  2  2  2  2  2  2  2  2  2  2  2  2  2  2
++         2  2  2  2  2  2  2  2  2  2  2  2  2  2  2  0  0
++         0  0  0  0  0  0  0  0  0  0  0  0  0  0  0  0  0
++         0  0  0  0  0  0  0  0  0  0  0  0  0  0  0  0  0
++         0  0  0  0  0  0  0  0  0  0  0  0  0  0  0  0  0
%c cc cc ccc ccc cccc cccc cccc cccc ccccc ccccc ccccc ccccc
%c cc cc ccc ccc cccc cccc cccc cccc ccccc ccccc ccccc ccccc
%f  0.0000000  0.000000000  0.00000000000  0.000000000000000
%f  0.0000000  0.000000000  0.00000000000  0.000000000000000
%i    0    0    0    0      0      0      0      0         0
%i    0    0    0    0      0      0      0      0         0
/*      NGA, ST. LOUIS,MO.                                  
/*   EPHEMERIS COMPUTED FROM 2 DAYS OF DATA                 
/*   EPOCHA v5 SMOOTHER                                     
/*   G2139 IERS2010 SATAF SATAPC                            
*  2021  1 24  1 35  0.00000000
P  1  13936.934885  -4970.068994  21791.727569    774.868890                    
V  1   4639.724520  27836.142750   3670.818078     -0.068554                    
P  2 -13645.723652 -18215.844569 -13016.882250   -569.293906                    
V  2  -1691.403789 -17710.041062  25303.084328     -0.041206                    
P  3  22508.508053 -11996.444752   7137.507658    -64.209517                    
V  3  -5523.691333   7767.530826  30235.029518     -0.099238                    
P  4  22715.921742   -938.967201 -13768.873422   -175.048873                    
V  4  15281.127357   8745.391566  24556.504780     -0.028780                    
P  5 -16849.140457  -4311.037944 -20276.512181    -31.794471                    
V  5  18460.093294 -17439.746583 -11538.883922     -0.009992                    
P  6  -5651.822763 -25824.474282  -2218.036834     -4.310542                    
V  6   1681.762665  -3200.608923  32093.996544      0.004677                    
P  7   7764.811288 -20003.749214 -14995.421012     32.939459                    
V  7   5593.742045  19230.761422 -22750.375974      0.140626                    
P  8  25474.146405   4136.105803   6914.440183     -7.704957                    
V  8   7426.474642   5027.500154 -30109.587891     -0.013790                    
P  9  13443.348623 -10554.894892 -20397.404974   -315.893904                    
V  9  23902.492658   9716.995987  10736.335188     -0.038949                    
P 10  -5777.861092  19686.831963  16822.109741    -45.912137                    
V 10 -17569.230601  12083.663842 -20561.565052     -0.083962                    
P 11  19120.725427   2909.484034  17604.050983    -44.560760                    
V 11  12020.436584  20419.980696 -16392.080302      0.105871                    
P 12 -23056.677792   7709.116447  10264.047170      8.768677                    
V 12   9684.900394  -9567.631042  28420.512818     -0.052501                    
P 13 -22912.008741 -13495.859825  -1509.641875     89.239905                    
V 13   2712.991611  -1363.090490 -31754.551998      0.041936                    
P 14   8497.896110 -19824.106822  15487.975944     89.767691                    
V 14  17024.815252 -10095.543439 -22255.753707      0.049418                    
P 15 -25687.801140  -1180.750383   6992.623147   -174.260005                    
V 15  -8165.350874  -5588.084009 -29085.705776      0.025743                    
P 16  15494.979193   6598.039311 -20882.604629   -269.546104                    
V 16 -21111.466959  14887.291221 -10631.500768     -0.055908                    
P 17  -4346.661868 -16902.355313  20456.953004    384.073796                    
V 17  23069.068134   9540.786818  13055.219281      0.048191                    
P 18  -6216.855888  22101.337249 -13309.019214    343.314377                    
V 18  -4430.856705 -16452.302151 -25312.908022      0.024567                    
P 19 -12256.168886 -17688.028441  15343.414962    -47.907059                    
V 19  18490.247388   7569.031455  22988.748966      0.050136                    
P 20 -14217.420433  21518.656530   5658.855265    525.025609                    
V 20  -7683.441856   2894.456905 -30269.879193     -0.001775                    
P 21  16398.673901   3724.839244  21380.566803     89.450946                    
V 21   5351.303875  24834.772285  -8323.930880      0.033037                    
P 22  21331.025861  -5555.409572  14894.978806   -692.755757                    
V 22 -11435.913519  15057.534784  22454.790384      0.069205                    
P 23 -15103.797019  20292.697201   8008.119808    117.104079                    
V 23  -9433.437177   4684.346198 -29606.896196      0.011353                    
P 24 -15935.244779     16.942892  21044.426649      3.272963                    
V 24  -5844.986280 -26709.433359  -3965.320862     -0.005474                    
P 25 -19439.725896  17775.547857  -2124.717976     65.984029                    
V 25  -3749.624948   -775.495047  31830.173300      0.077885                    
P 26   6363.575327  14807.062153 -21123.875033     34.438004                    
V 26 -20588.798458  17198.944142   6127.996279      0.056280                    
P 27  22886.863795  12734.100973  -5612.909265    -62.157691                    
V 27  -7080.525452   -638.238281 -30823.184955     -0.076535                    
P 28   5851.453540 -18913.549335  18360.855775    625.537871                    
V 28  18944.594477 -11379.230618 -18149.236095     -0.052394                    
P 29 -14519.625910   8375.438474 -20651.453569   -281.551615                    
V 29 -23334.014062 -11624.288476  11672.712645     -0.071861                    
P 30    502.286815 -25890.413655  -5310.219679   -373.718721                    
V 30   4526.118769   6325.259079 -30374.301740     -0.059711                    
P 31   6974.388129  24873.013634  -5069.824513    -95.747445                    
V 31  -2381.872831   6812.190629  31065.451343     -0.023057                    
P 32   6262.667844  17023.036387  19549.432564     15.803265                    
V 32 -23458.307121  -7453.488806  13907.397715      0.017994                    
EOF
